1 00005U 58002B   22270.02746013  .00000208  00000-0  27135-3 0  9997
2 00005  34.2436 186.3778 1846628 134.7404 241.9188 10.85011680295578
1 00011U 59001A   22270.13006528  .00000187  00000-0  79166-4 0  9994
2 00011  32.8770 171.9484 1467339 267.9636  75.2858 11.86171733373733